{
  "type": "FeatureCollection",
  "features": [
    {
      "type": "Feature",
      "properties": {
        "norad_id": 38867,
        "name": "INTELSAT 23 (IS-23)",
        "group": "intelsat",
        "lat": 0.022487454237658154,
        "lon": 94.28003595351078,
        "alt_km": 35791.08484228954,
        "timestamp": "2025-12-05T04:52:14.989478+00:00",
        "meta_object_name": "INTELSAT 23 (IS-23)",
        "meta_object_id": "2012-057A",
        "meta_epoch": "2025-12-04T11:45:19.965888",
        "meta_mean_motion": 1.00269543,
        "meta_eccentricity": 0.0001743,
        "meta_inclination": 0.0477,
        "meta_ra_of_asc_node": 108.5644,
        "meta_arg_of_pericenter": 111.0898,
        "meta_mean_anomaly": 337.2339,
        "meta_ephemeris_type": 0,
        "meta_classification_type": "U",
        "meta_norad_cat_id": 38867,
        "meta_element_set_no": 999,
        "meta_rev_at_epoch": 4800,
        "meta_bstar": 0,
        "meta_mean_motion_dot": -2.7e-06,
        "meta_mean_motion_ddot": 0,
        "tle_line1": "1 38867U 12057A   25338.48981442 -.00000270  00000+0  00000+0 0  9996",
        "tle_line2": "2 38867   0.0477 108.5644 0001743 111.0898 337.2339  1.00269543 48005"
      },
      "geometry": {
        "type": "Point",
        "coordinates": [
          94.28003595351078,
          0.022487454237658154
        ]
      }
    },
    {
      "type": "Feature",
      "properties": {
        "norad_id": 39360,
        "name": "FM-6",
        "group": "intelsat",
        "lat": -0.006665249060109385,
        "lon": 31.139237747654327,
        "alt_km": 35795.37891108249,
        "timestamp": "2025-12-05T04:52:14.989490+00:00",
        "meta_object_name": "FM-6",
        "meta_object_id": "2013-058A",
        "meta_epoch": "2025-12-04T13:10:30.278784",
        "meta_mean_motion": 1.0027298,
        "meta_eccentricity": 0.0002865,
        "meta_inclination": 0.0105,
        "meta_ra_of_asc_node": 101.923,
        "meta_arg_of_pericenter": 72.498,
        "meta_mean_anomaly": 340.6718,
        "meta_ephemeris_type": 0,
        "meta_classification_type": "U",
        "meta_norad_cat_id": 39360,
        "meta_element_set_no": 999,
        "meta_rev_at_epoch": 4412,
        "meta_bstar": 0,
        "meta_mean_motion_dot": -3e-08,
        "meta_mean_motion_ddot": 0,
        "tle_line1": "1 39360U 13058A   25338.54896156 -.00000003  00000+0  00000+0 0  9995",
        "tle_line2": "2 39360   0.0105 101.9230 0002865  72.4980 340.6718  1.00272980 44125"
      },
      "geometry": {
        "type": "Point",
        "coordinates": [
          31.139237747654327,
          -0.006665249060109385
        ]
      }
    },
    {
      "type": "Feature",
      "properties": {
        "norad_id": 40271,
        "name": "INTELSAT 30 (IS-30)",
        "group": "intelsat",
        "lat": 0.026754468217385335,
        "lon": 52.24157299916602,
        "alt_km": 35782.26441909298,
        "timestamp": "2025-12-05T04:52:14.989500+00:00",
        "meta_object_name": "INTELSAT 30 (IS-30)",
        "meta_object_id": "2014-062A",
        "meta_epoch": "2025-12-04T09:03:49.646880",
        "meta_mean_motion": 1.00269366,
        "meta_eccentricity": 0.0001154,
        "meta_inclination": 0.0161,
        "meta_ra_of_asc_node": 21.4794,
        "meta_arg_of_pericenter": 53.1433,
        "meta_mean_anomaly": 39.7301,
        "meta_ephemeris_type": 0,
        "meta_classification_type": "U",
        "meta_norad_cat_id": 40271,
        "meta_element_set_no": 999,
        "meta_rev_at_epoch": 483,
        "meta_bstar": 0,
        "meta_mean_motion_dot": -1.35e-06,
        "meta_mean_motion_ddot": 0,
        "tle_line1": "1 40271U 14062A   25338.37765795 -.00000135  00000+0  00000+0 0  9995",
        "tle_line2": "2 40271   0.0161  21.4794 0001154  53.1433  39.7301  1.00269366  4832"
      },
      "geometry": {
        "type": "Point",
        "coordinates": [
          52.24157299916602,
          0.026754468217385335
        ]
      }
    },
    {
      "type": "Feature",
      "properties": {
        "norad_id": 40333,
        "name": "DIRECTV 14",
        "group": "intelsat",
        "lat": 0.04187874272347796,
        "lon": 48.10315061887039,
        "alt_km": 35787.667701891376,
        "timestamp": "2025-12-05T04:52:14.989511+00:00",
        "meta_object_name": "DIRECTV 14",
        "meta_object_id": "2014-078B",
        "meta_epoch": "2025-12-04T13:15:14.825088",
        "meta_mean_motion": 1.00274953,
        "meta_eccentricity": 5.88e-05,
        "meta_inclination": 0.0162,
        "meta_ra_of_asc_node": 323.3693,
        "meta_arg_of_pericenter": 256.7159,
        "meta_mean_anomaly": 313.1375,
        "meta_ephemeris_type": 0,
        "meta_classification_type": "U",
        "meta_norad_cat_id": 40333,
        "meta_element_set_no": 999,
        "meta_rev_at_epoch": 4009,
        "meta_bstar": 0,
        "meta_mean_motion_dot": -1.11e-06,
        "meta_mean_motion_ddot": 0,
        "tle_line1": "1 40333U 14078B   25338.55225492 -.00000111  00000+0  00000+0 0  9990",
        "tle_line2": "2 40333   0.0162 323.3693 0000588 256.7159 313.1375  1.00274953 40096"
      },
      "geometry": {
        "type": "Point",
        "coordinates": [
          48.10315061887039,
          0.04187874272347796
        ]
      }
    },
    {
      "type": "Feature",
      "properties": {
        "norad_id": 40663,
        "name": "DIRECTV 15",
        "group": "intelsat",
        "lat": 0.0056334579190058685,
        "lon": 44.451258719563924,
        "alt_km": 35787.70125201521,
        "timestamp": "2025-12-05T04:52:14.989521+00:00",
        "meta_object_name": "DIRECTV 15",
        "meta_object_id": "2015-026A",
        "meta_epoch": "2025-12-04T13:14:14.921376",
        "meta_mean_motion": 1.00273558,
        "meta_eccentricity": 5.32e-05,
        "meta_inclination": 0.0427,
        "meta_ra_of_asc_node": 90.6657,
        "meta_arg_of_pericenter": 154.4213,
        "meta_mean_anomaly": 284.2335,
        "meta_ephemeris_type": 0,
        "meta_classification_type": "U",
        "meta_norad_cat_id": 40663,
        "meta_element_set_no": 999,
        "meta_rev_at_epoch": 3851,
        "meta_bstar": 0,
        "meta_mean_motion_dot": -8.8e-07,
        "meta_mean_motion_ddot": 0,
        "tle_line1": "1 40663U 15026A   25338.55156159 -.00000088  00000+0  00000+0 0  9996",
        "tle_line2": "2 40663   0.0427  90.6657 0000532 154.4213 284.2335  1.00273558 38512"
      },
      "geometry": {
        "type": "Point",
        "coordinates": [
          44.451258719563924,
          0.0056334579190058685
        ]
      }
    },
    {
      "type": "Feature",
      "properties": {
        "norad_id": 40664,
        "name": "SKY MEXICO-1",
        "group": "intelsat",
        "lat": 0.04198883558170943,
        "lon": 68.55460687380692,
        "alt_km": 35797.78821239711,
        "timestamp": "2025-12-05T04:52:14.989532+00:00",
        "meta_object_name": "SKY MEXICO-1",
        "meta_object_id": "2015-026B",
        "meta_epoch": "2025-12-04T11:38:20.665824",
        "meta_mean_motion": 1.00270203,
        "meta_eccentricity": 0.0002797,
        "meta_inclination": 0.0169,
        "meta_ra_of_asc_node": 345.8981,
        "meta_arg_of_pericenter": 281.7286,
        "meta_mean_anomaly": 261.7558,
        "meta_ephemeris_type": 0,
        "meta_classification_type": "U",
        "meta_norad_cat_id": 40664,
        "meta_element_set_no": 999,
        "meta_rev_at_epoch": 3850,
        "meta_bstar": 0,
        "meta_mean_motion_dot": -2.2e-06,
        "meta_mean_motion_ddot": 0,
        "tle_line1": "1 40664U 15026B   25338.48496141 -.00000220  00000+0  00000+0 0  9995",
        "tle_line2": "2 40664   0.0169 345.8981 0002797 281.7286 261.7558  1.00270203 38500"
      },
      "geometry": {
        "type": "Point",
        "coordinates": [
          68.55460687380692,
          0.04198883558170943
        ]
      }
    },
    {
      "type": "Feature",
      "properties": {
        "norad_id": 40874,
        "name": "INTELSAT 34 (IS-34)",
        "group": "intelsat",
        "lat": 0.0295903950722044,
        "lon": 91.79590851018376,
        "alt_km": 35786.49524605226,
        "timestamp": "2025-12-05T04:52:14.989542+00:00",
        "meta_object_name": "INTELSAT 34 (IS-34)",
        "meta_object_id": "2015-039A",
        "meta_epoch": "2025-12-04T13:27:36.142272",
        "meta_mean_motion": 1.00269782,
        "meta_eccentricity": 4.51e-05,
        "meta_inclination": 0.0126,
        "meta_ra_of_asc_node": 319.2711,
        "meta_arg_of_pericenter": 215.7413,
        "meta_mean_anomaly": 45.0168,
        "meta_ephemeris_type": 0,
        "meta_classification_type": "U",
        "meta_norad_cat_id": 40874,
        "meta_element_set_no": 999,
        "meta_rev_at_epoch": 3767,
        "meta_bstar": 0,
        "meta_mean_motion_dot": -2.71e-06,
        "meta_mean_motion_ddot": 0,
        "tle_line1": "1 40874U 15039A   25338.56083498 -.00000271  00000+0  00000+0 0  9994",
        "tle_line2": "2 40874   0.0126 319.2711 0000451 215.7413  45.0168  1.00269782 37673"
      },
      "geometry": {
        "type": "Point",
        "coordinates": [
          91.79590851018376,
          0.0295903950722044
        ]
      }
    }
  ]
}